DIWATA-2B               
1 43678U 18084H   23340.14028081  .00001699  00000+0  16409-3 0  9992
2 43678  98.0449 127.9375 0008570 318.6012  41.4556 14.94219646277938
ES'HAIL 2               
1 43700U 18090A   23339.84152427  .00000164  00000+0  00000+0 0  9994
2 43700   0.0174 352.3091 0001908 303.4695 107.3530  1.00272845 18400
FOX-1CLIFF (AO-95)      
1 43770U 18099N   23339.62470818  .00006413  00000+0  48846-3 0  9990
2 43770  97.5784  36.8531 0012326 307.6957  52.3149 15.02351542273329
ITASAT                  
1 43786U 18099AE  23339.15827734  .00005282  00000+0  41219-3 0  9998
2 43786  97.5464  37.0446 0016692 286.1364  73.8023 15.01454378273286
JY1SAT (JO-97)          
1 43803U 18099AX  23340.12504130  .00007765  00000+0  57327-3 0  9994
2 43803  97.5492  38.4109 0010107 243.7785 116.2402 15.03485368273502
UWE-4                   
1 43880U 18111E   23339.26958504  .00008182  00000+0  57688-3 0  9999
2 43880  97.6235 241.9537 0016940 322.5888  37.4158 15.05130866270073
JAISAT-1                
1 44419U 19038F   23339.54292837  .00049081  00000+0  10999-2 0  9994
2 44419  97.6843 328.4981 0014507  57.6379 302.6270 15.43166971244834
DUCHIFAT-3              
1 44854U 19089C   23339.83626069  .00011086  00000+0  66952-3 0  9998
2 44854  36.9587 142.7290 0008562 299.7043  60.2849 15.10141008218758
TIANYAN 01              
1 44881U 19093C   23340.17522236  .00001375  00000+0  17530-3 0  9991
2 44881  97.8489  55.6252 0013448 233.8859 126.1110 14.83054192214281
RS-44 & BREEZE-KM R/B   
1 44909U 19096E   23339.20610067  .00000014  00000+0  56546-5 0  9998
2 44909  82.5225 234.2975 0217935 146.8811 214.6156 12.79724262184033
BY70-2                  
1 45857U 20042B   23340.18988815  .00033231  00000+0  26043-2 0  9995
2 45857  97.9195  61.6912 0006725 151.7122 208.4467 15.00882523185239
SALSAT                  
1 46495U 20068K   23339.83310322  .00006226  00000+0  38703-3 0  9995
2 46495  97.7914 290.0821 0012906 255.6820 104.2975 15.09954741174954
RADFXSAT-2 (AO-109)     
1 47311U 21002C   23339.54082369  .00064010  00000+0  95383-3 0  9999
2 47311  60.6743 113.6764 0024165  38.6217 321.6608 15.54331812160766
UVSQ-SAT                
1 47438U 21006AB  23340.10870092  .00024059  00000+0  77912-3 0  9992
2 47438  97.3611  35.3155 0008021 184.0268 176.0911 15.31990918158899
LEDSAT                  
1 49069U 21073D   23340.13653331  .00011758  00000+0  57392-3 0  9998
2 49069  97.4645  48.3561 0020878 242.4538 117.4575 15.18245093126956
XW-3 (CAS-9)            
1 50466U 21131B   23340.18686686  .00000842  00000+0  28578-3 0  9996
2 50466  98.5427  61.1386 0003954   1.6766 358.4435 14.39230038102097
TEVEL-3                 
1 50988U 22002E   23340.18351137  .00034322  00000+0  99095-3 0  9995
2 50988  97.4120  46.8645 0005833 354.8946   5.2237 15.35580635105057
TEVEL-8                 
1 50989U 22002F   23340.14547374  .00033983  00000+0  98403-3 0  9996
2 50989  97.4137  46.9034 0005746 352.4486   7.6670 15.35491589105040
TEVEL-5                 
1 50998U 22002Q   23340.14216943  .00036818  00000+0  10159-2 0  9992
2 50998  97.4114  47.4657 0006547 345.0433  15.0617 15.36979155105092
TEVEL-6                 
1 50999U 22002R   23340.14134510  .00036039  00000+0  99510-3 0  9996
2 50999  97.4112  47.4542 0006499 344.6712  15.4334 15.36961973105094
TEVEL-1                 
1 51013U 22002AF  23340.13459727  .00033576  00000+0  97197-3 0  9995
2 51013  97.4112  46.7244 0005605 353.9845   6.1331 15.35504057105045
TEVEL-7                 
1 51062U 22002CG  23340.14320916  .00034340  00000+0  99287-3 0  9999
2 51062  97.4131  46.8710 0005759 352.5566   7.5591 15.35536614105041
TEVEL-4                 
1 51063U 22002CH  23340.15784247  .00034288  00000+0  99500-3 0  9991
2 51063  97.4131  46.8448 0005700 352.9231   7.1931 15.35422260105044
TEVEL-2                 
1 51069U 22002CP  23340.18433421  .00034140  00000+0  98522-3 0  9995
2 51069  97.4117  46.8325 0005761 354.5268   5.5911 15.35597373105052
GREENCUBE               
1 53106U 22080B   23332.09968023 -.00000003  00000+0  00000+0 0  9999
2 53106  70.1436 262.7414 0008227 151.4978 208.6132  6.42557248 32288
CYCLOPS (RS29S)         
1 53373U 22096D   23340.13538270  .00085213  00000+0  10409-2 0  9995
2 53373  97.3982 250.3004 0004330  80.3309 279.8437 15.60147385 74278
MONITOR-1 (RS32S)       
1 53374U 22096E   23340.15243952  .00084196  00000+0  11467-2 0  9992
2 53374  97.3924 249.6938 0003391  84.9092 275.2550 15.57256260 74249
KUZBASS-300 (RS34S)     
1 53375U 22096F   23340.13780012  .00049035  00000+0  88506-3 0  9996
2 53375  97.4002 248.4801 0002414  80.6259 279.5265 15.49591494 74159
UTMN (RS23S)            
1 53376U 22096G   23340.12340603  .00054636  00000+0  92540-3 0  9990
2 53376  97.3982 248.7827 0002882  74.8657 285.2913 15.51367905 74170
MIET-AIS (RS28S)        
1 53377U 22096H   23340.12341709  .00043260  00000+0  82844-3 0  9996
2 53377  97.4012 248.2262 0002555  81.3416 278.8124 15.47919315 74138
KAI-1 (RS26S)           
1 53378U 22096J   23340.14522433  .00032873  00000+0  70941-3 0  9997
2 53378  97.4039 247.4907 0002213  79.7872 280.3626 15.44483514 74086
ISOI (RS19S)            
1 53381U 22096M   23340.15618081  .00041702  00000+0  76465-3 0  9995
2 53381  97.4006 248.7572 0004384 108.4082 251.7645 15.49170338 74175
CUBESX-HSE-2 (RS21S)    
1 53383U 22096P   23340.14582924  .00053017  00000+0  90257-3 0  9999
2 53383  97.3986 249.0768 0004966 109.1666 251.0123 15.51222689 74192
SIREN (RS30S)           
1 53384U 22096Q   23340.19198055  .00033589  00000+0  66741-3 0  9996
2 53384  97.4017 248.3031 0004179 111.0479 249.1217 15.46896972 74147
GEOSCAN-EDELVEIS (RS20S)
1 53385U 22096R   23340.19146013  .00119234  00000+0  12525-2 0  9996
2 53385  97.3963 251.3962 0006670  96.7042 263.4976 15.63929172 74382
VIZARD (RS33S)          
1 53386U 22096S   23339.81245184  .00827430  31610-3  17898-2 0  9990
2 53386  97.3863 254.2046 0008442 112.0499 248.1676 15.98384839 74520
CAS-5A (FO-118)         
1 54684U 22167C   23340.16210168  .00016347  00000+0  76348-3 0  9993
2 54684  97.5822 117.4441 0012743 100.7710 259.4959 15.19822527 54742
STRATOSAT-TK 1 (RS52S)  
1 57167U 23091B   23340.08273126  .00009978  00000+0  67534-3 0  9992
2 57167  97.6435  29.3051 0018360  64.7300 295.5827 15.06571416 24280
UMKA 1 (RS40S)          
1 57172U 23091G   23340.14244393  .00004525  00000+0  32184-3 0  9995
2 57172  97.6437  29.2261 0019184  64.7254 295.5958 15.05012328 24289
CUBESX-HSE 3 (RS42S)    
1 57178U 23091N   23340.07072355  .00006204  00000+0  43494-3 0  9992
2 57178  97.6472  29.2461 0020020  60.0801 300.2410 15.05397335 24274
MONITOR-4 (RS57S)       
1 57182U 23091S   23340.14918710  .00006251  00000+0  44062-3 0  9993
2 57182  97.6460  29.2722 0020024  60.1781 300.1433 15.05190096 24288
MONITOR-2 (RS39S)       
1 57184U 23091U   23340.07914397  .00004390  00000+0  30893-3 0  9993
2 57184  97.6467  29.3727 0016127  55.4502 304.8244 15.05475647 24289
SVYATOBOR 1 (RS60S)     
1 57187U 23091X   23340.10464434  .00005942  00000+0  40923-3 0  9991
2 57187  97.6455  29.4947 0015481  52.8432 307.4206 15.06143319 24296
VIZARD-METEO (RS38S)    
1 57189U 23091Z   23340.18804571  .00006069  00000+0  41028-3 0  9999
2 57189  97.6455  29.6762 0014666  52.0741 308.1809 15.06837222 24317
NANOZOND 1 (RS49S)      
1 57190U 23091AA  23340.13536569  .00009038  00000+0  59319-3 0  9996
2 57190  97.6434  29.6883 0013415  58.0497 302.2033 15.07805013 24313
POLYTECH-UNIVERSE 3 (R*)
1 57191U 23091AB  23340.13440899  .00004130  00000+0  29142-3 0  9996
2 57191  97.6432  29.2337 0022236  70.4899 289.8727 15.05310715 24281
UTMN 2 (RS27S)          
1 57203U 23091AP  23340.13563831  .00006041  00000+0  41073-3 0  9992
2 57203  97.6459  29.5910 0015141  52.7265 307.5341 15.06618497 24303
ARCCUBE 1 (RS25S)       
1 57205U 23091AR  23340.19388396  .00009736  00000+0  63376-3 0  9995
2 57205  97.6413  29.7290 0013713  59.2400 301.0177 15.08084577 24320
KUZGTU 1 (RS47S)        
1 57217U 23091AV  23340.13531548  .00005979  00000+0  41972-3 0  9994
2 57217  97.6448  29.2632 0019965  61.1089 299.2137 15.05364277 24280
